2025-313Z               
1 67271U 25313Z   26016.57132663  .00003734  00000+0  17590-3 0  9996
2 67271  97.4117  93.7016 0015769 167.5065 192.6564 15.20024095  2898
2025-313AA              
1 67272U 25313AA  26016.50286720  .00008560  00000+0  39488-3 0  9996
2 67272  97.4121  93.6389 0015448 172.2464 187.9014 15.20375588  2888
2025-313AB              
1 67273U 25313AB  26016.50538073  .00002600  00000+0  12359-3 0  9995
2 67273  97.4134  93.6403 0014668 176.1000 184.0352 15.20006156  2887
2025-313AC              
1 67274U 25313AC  26016.50410279  .00005172  00000+0  24134-3 0  9994
2 67274  97.4110  93.6448 0015425 171.1602 188.9908 15.20178051  2880
2025-313AD              
1 67275U 25313AD  26016.50342234  .00005481  00000+0  25518-3 0  9990
2 67275  97.4085  93.6397 0014653 173.9492 186.1923 15.20239818  2880
2025-313AE              
1 67276U 25313AE  26016.50338894  .00005530  00000+0  25743-3 0  9993
2 67276  97.4089  93.6405 0014594 173.9804 186.1609 15.20239052  2887
2025-313AF              
1 67277U 25313AF  26016.50363946  .00005048  00000+0  23551-3 0  9999
2 67277  97.4092  93.6410 0014581 173.8579 186.2838 15.20203684  2889
2025-313AG              
1 67278U 25313AG  26016.50346092  .00005144  00000+0  23981-3 0  9997
2 67278  97.4094  93.6419 0014551 173.6841 186.4581 15.20220753  2892
GALAPAGOS-UTE-SWSU      
1 67279U 25313AH  26016.50278327  .00005801  00000+0  26936-3 0  9996
2 67279  97.4105  93.6453 0015109 170.7944 189.3572 15.20297896  2889
2025-313AJ              
1 67280U 25313AJ  26016.49861037  .00004387  00000+0  20288-3 0  9994
2 67280  97.4176  93.6557 0014033 167.3927 192.7662 15.20588147  2882
2025-313AK              
1 67281U 25313AK  26016.49748353  .00004495  00000+0  20735-3 0  9997
2 67281  97.4059  93.6391 0012762 166.1662 193.9926 15.20679774  2882
2025-313AL              
1 67282U 25313AL  26016.62450968  .00004672  00000+0  21309-3 0  9990
2 67282  97.4108  93.7747 0011558 164.6640 195.4948 15.21059724  2907
