CCSDS_OMM_VERS = 2.0
CREATION_DATE  = 
ORIGINATOR     = 

OBJECT_NAME    = 2025-313Z
OBJECT_ID      = 2025-313Z
CENTER_NAME    = EARTH
REF_FRAME      = TEME
TIME_SYSTEM    = UTC
MEAN_ELEMENT_THEORY = SGP/SGP4

EPOCH          = 2026-01-16T13:42:42.620832
MEAN_MOTION    = 15.20024095
ECCENTRICITY   = .0015769
INCLINATION    = 97.4117
RA_OF_ASC_NODE = 93.7016
ARG_OF_PERICENTER = 167.5065
MEAN_ANOMALY   = 192.6564

EPHEMERIS_TYPE = 0
CLASSIFICATION_TYPE = U
NORAD_CAT_ID   = 67271
ELEMENT_SET_NO = 999
REV_AT_EPOCH   = 289
BSTAR          = .1759014E-3
MEAN_MOTION_DOT = .3734E-4
MEAN_MOTION_DDOT = 0

CCSDS_OMM_VERS = 2.0
CREATION_DATE  = 
ORIGINATOR     = 

OBJECT_NAME    = 2025-313AA
OBJECT_ID      = 2025-313AA
CENTER_NAME    = EARTH
REF_FRAME      = TEME
TIME_SYSTEM    = UTC
MEAN_ELEMENT_THEORY = SGP/SGP4

EPOCH          = 2026-01-16T12:04:07.726080
MEAN_MOTION    = 15.20375588
ECCENTRICITY   = .00154483
INCLINATION    = 97.4121
RA_OF_ASC_NODE = 93.6389
ARG_OF_PERICENTER = 172.2464
MEAN_ANOMALY   = 187.9014

EPHEMERIS_TYPE = 0
CLASSIFICATION_TYPE = U
NORAD_CAT_ID   = 67272
ELEMENT_SET_NO = 999
REV_AT_EPOCH   = 288
BSTAR          = .39487641E-3
MEAN_MOTION_DOT = .856E-4
MEAN_MOTION_DDOT = 0

CCSDS_OMM_VERS = 2.0
CREATION_DATE  = 
ORIGINATOR     = 

OBJECT_NAME    = 2025-313AB
OBJECT_ID      = 2025-313AB
CENTER_NAME    = EARTH
REF_FRAME      = TEME
TIME_SYSTEM    = UTC
MEAN_ELEMENT_THEORY = SGP/SGP4

EPOCH          = 2026-01-16T12:07:44.895072
MEAN_MOTION    = 15.20006156
ECCENTRICITY   = .0014668
INCLINATION    = 97.4134
RA_OF_ASC_NODE = 93.6403
ARG_OF_PERICENTER = 176.1000
MEAN_ANOMALY   = 184.0352

EPHEMERIS_TYPE = 0
CLASSIFICATION_TYPE = U
NORAD_CAT_ID   = 67273
ELEMENT_SET_NO = 999
REV_AT_EPOCH   = 288
BSTAR          = .12358502E-3
MEAN_MOTION_DOT = .26E-4
MEAN_MOTION_DDOT = 0

CCSDS_OMM_VERS = 2.0
CREATION_DATE  = 
ORIGINATOR     = 

OBJECT_NAME    = 2025-313AC
OBJECT_ID      = 2025-313AC
CENTER_NAME    = EARTH
REF_FRAME      = TEME
TIME_SYSTEM    = UTC
MEAN_ELEMENT_THEORY = SGP/SGP4

EPOCH          = 2026-01-16T12:05:54.481056
MEAN_MOTION    = 15.20178051
ECCENTRICITY   = .00154258
INCLINATION    = 97.4110
RA_OF_ASC_NODE = 93.6448
ARG_OF_PERICENTER = 171.1602
MEAN_ANOMALY   = 188.9908

EPHEMERIS_TYPE = 0
CLASSIFICATION_TYPE = U
NORAD_CAT_ID   = 67274
ELEMENT_SET_NO = 999
REV_AT_EPOCH   = 288
BSTAR          = .24133515E-3
MEAN_MOTION_DOT = .5172E-4
MEAN_MOTION_DDOT = 0

CCSDS_OMM_VERS = 2.0
CREATION_DATE  = 
ORIGINATOR     = 

OBJECT_NAME    = 2025-313AD
OBJECT_ID      = 2025-313AD
CENTER_NAME    = EARTH
REF_FRAME      = TEME
TIME_SYSTEM    = UTC
MEAN_ELEMENT_THEORY = SGP/SGP4

EPOCH          = 2026-01-16T12:04:55.690176
MEAN_MOTION    = 15.20239818
ECCENTRICITY   = .00146535
INCLINATION    = 97.4085
RA_OF_ASC_NODE = 93.6397
ARG_OF_PERICENTER = 173.9492
MEAN_ANOMALY   = 186.1923

EPHEMERIS_TYPE = 0
CLASSIFICATION_TYPE = U
NORAD_CAT_ID   = 67275
ELEMENT_SET_NO = 999
REV_AT_EPOCH   = 288
BSTAR          = .2551767E-3
MEAN_MOTION_DOT = .5481E-4
MEAN_MOTION_DDOT = 0

CCSDS_OMM_VERS = 2.0
CREATION_DATE  = 
ORIGINATOR     = 

OBJECT_NAME    = 2025-313AE
OBJECT_ID      = 2025-313AE
CENTER_NAME    = EARTH
REF_FRAME      = TEME
TIME_SYSTEM    = UTC
MEAN_ELEMENT_THEORY = SGP/SGP4

EPOCH          = 2026-01-16T12:04:52.804416
MEAN_MOTION    = 15.20239052
ECCENTRICITY   = .00145944
INCLINATION    = 97.4089
RA_OF_ASC_NODE = 93.6405
ARG_OF_PERICENTER = 173.9804
MEAN_ANOMALY   = 186.1609

EPHEMERIS_TYPE = 0
CLASSIFICATION_TYPE = U
NORAD_CAT_ID   = 67276
ELEMENT_SET_NO = 999
REV_AT_EPOCH   = 288
BSTAR          = .25743305E-3
MEAN_MOTION_DOT = .553E-4
MEAN_MOTION_DDOT = 0

CCSDS_OMM_VERS = 2.0
CREATION_DATE  = 
ORIGINATOR     = 

OBJECT_NAME    = 2025-313AF
OBJECT_ID      = 2025-313AF
CENTER_NAME    = EARTH
REF_FRAME      = TEME
TIME_SYSTEM    = UTC
MEAN_ELEMENT_THEORY = SGP/SGP4

EPOCH          = 2026-01-16T12:05:14.449344
MEAN_MOTION    = 15.20203684
ECCENTRICITY   = .00145811
INCLINATION    = 97.4092
RA_OF_ASC_NODE = 93.6410
ARG_OF_PERICENTER = 173.8579
MEAN_ANOMALY   = 186.2838

EPHEMERIS_TYPE = 0
CLASSIFICATION_TYPE = U
NORAD_CAT_ID   = 67277
ELEMENT_SET_NO = 999
REV_AT_EPOCH   = 288
BSTAR          = .23551326E-3
MEAN_MOTION_DOT = .5048E-4
MEAN_MOTION_DDOT = 0

CCSDS_OMM_VERS = 2.0
CREATION_DATE  = 
ORIGINATOR     = 

OBJECT_NAME    = 2025-313AG
OBJECT_ID      = 2025-313AG
CENTER_NAME    = EARTH
REF_FRAME      = TEME
TIME_SYSTEM    = UTC
MEAN_ELEMENT_THEORY = SGP/SGP4

EPOCH          = 2026-01-16T12:04:59.023488
MEAN_MOTION    = 15.20220753
ECCENTRICITY   = .00145519
INCLINATION    = 97.4094
RA_OF_ASC_NODE = 93.6419
ARG_OF_PERICENTER = 173.6841
MEAN_ANOMALY   = 186.4581

EPHEMERIS_TYPE = 0
CLASSIFICATION_TYPE = U
NORAD_CAT_ID   = 67278
ELEMENT_SET_NO = 999
REV_AT_EPOCH   = 289
BSTAR          = .23981279E-3
MEAN_MOTION_DOT = .5144E-4
MEAN_MOTION_DDOT = 0

CCSDS_OMM_VERS = 2.0
CREATION_DATE  = 
ORIGINATOR     = 

OBJECT_NAME    = GALAPAGOS-UTE-SWSU
OBJECT_ID      = 2025-313AH
CENTER_NAME    = EARTH
REF_FRAME      = TEME
TIME_SYSTEM    = UTC
MEAN_ELEMENT_THEORY = SGP/SGP4

EPOCH          = 2026-01-16T12:04:00.474528
MEAN_MOTION    = 15.20297896
ECCENTRICITY   = .00151095
INCLINATION    = 97.4105
RA_OF_ASC_NODE = 93.6453
ARG_OF_PERICENTER = 170.7944
MEAN_ANOMALY   = 189.3572

EPHEMERIS_TYPE = 0
CLASSIFICATION_TYPE = U
NORAD_CAT_ID   = 67279
ELEMENT_SET_NO = 999
REV_AT_EPOCH   = 288
BSTAR          = .26935847E-3
MEAN_MOTION_DOT = .5801E-4
MEAN_MOTION_DDOT = 0

CCSDS_OMM_VERS = 2.0
CREATION_DATE  = 
ORIGINATOR     = 

OBJECT_NAME    = 2025-313AJ
OBJECT_ID      = 2025-313AJ
CENTER_NAME    = EARTH
REF_FRAME      = TEME
TIME_SYSTEM    = UTC
MEAN_ELEMENT_THEORY = SGP/SGP4

EPOCH          = 2026-01-16T11:57:59.935968
MEAN_MOTION    = 15.20588147
ECCENTRICITY   = .00140331
INCLINATION    = 97.4176
RA_OF_ASC_NODE = 93.6557
ARG_OF_PERICENTER = 167.3927
MEAN_ANOMALY   = 192.7662

EPHEMERIS_TYPE = 0
CLASSIFICATION_TYPE = U
NORAD_CAT_ID   = 67280
ELEMENT_SET_NO = 999
REV_AT_EPOCH   = 288
BSTAR          = .20288083E-3
MEAN_MOTION_DOT = .4387E-4
MEAN_MOTION_DDOT = 0

CCSDS_OMM_VERS = 2.0
CREATION_DATE  = 
ORIGINATOR     = 

OBJECT_NAME    = 2025-313AK
OBJECT_ID      = 2025-313AK
CENTER_NAME    = EARTH
REF_FRAME      = TEME
TIME_SYSTEM    = UTC
MEAN_ELEMENT_THEORY = SGP/SGP4

EPOCH          = 2026-01-16T11:56:22.576992
MEAN_MOTION    = 15.20679774
ECCENTRICITY   = .00127622
INCLINATION    = 97.4059
RA_OF_ASC_NODE = 93.6391
ARG_OF_PERICENTER = 166.1662
MEAN_ANOMALY   = 193.9926

EPHEMERIS_TYPE = 0
CLASSIFICATION_TYPE = U
NORAD_CAT_ID   = 67281
ELEMENT_SET_NO = 999
REV_AT_EPOCH   = 288
BSTAR          = .20735095E-3
MEAN_MOTION_DOT = .4495E-4
MEAN_MOTION_DDOT = 0

CCSDS_OMM_VERS = 2.0
CREATION_DATE  = 
ORIGINATOR     = 

OBJECT_NAME    = 2025-313AL
OBJECT_ID      = 2025-313AL
CENTER_NAME    = EARTH
REF_FRAME      = TEME
TIME_SYSTEM    = UTC
MEAN_ELEMENT_THEORY = SGP/SGP4

EPOCH          = 2026-01-16T14:59:17.636352
MEAN_MOTION    = 15.21059724
ECCENTRICITY   = .00115582
INCLINATION    = 97.4108
RA_OF_ASC_NODE = 93.7747
ARG_OF_PERICENTER = 164.6640
MEAN_ANOMALY   = 195.4948

EPHEMERIS_TYPE = 0
CLASSIFICATION_TYPE = U
NORAD_CAT_ID   = 67282
ELEMENT_SET_NO = 999
REV_AT_EPOCH   = 290
BSTAR          = .21309176E-3
MEAN_MOTION_DOT = .4672E-4
MEAN_MOTION_DDOT = 0

